NORAD_CAT_ID,OBJECT_NAME,OBJECT_TYPE,EPOCH,MEAN_MOTION,ECCENTRICITY,INCLINATION,RA_OF_ASC_NODE,ARG_OF_PERICENTER,MEAN_ANOMALY,BSTAR,MEAN_MOTION_DOT,MEAN_MOTION_DDOT,TLE_LINE0,TLE_LINE1,TLE_LINE2,SEMIMAJOR_AXIS,PERIOD,APOGEE,PERIGEE,DECAYED
49146.0,STARLINK-3116,PAYLOAD,2022-05-08 06:00:00,14.96722335,0.0003032,69.9981,207.2761,274.0727,34.9429,-0.00011261,-1.381e-05,0.0,0 STARLINK-3116,1 49146U 21082S   22128.25001157 -.00001381  00000-0 -11261-3 0  9992,2 49146  69.9981 207.2761 0003032 274.0727  34.9429 14.96722335 37733,6955.169,96.21,579.143,574.925,0.0
49146.0,STARLINK-3116,PAYLOAD,2022-05-08 14:00:01,14.96697405,0.0003077,69.9981,206.4376,280.8544,23.7182,0.0030877,0.00035413,0.0,0 STARLINK-3116,1 49146U 21082S   22128.58334491  .00035413  00000-0  30877-2 0  9992,2 49146  69.9981 206.4376 0003077 280.8544  23.7182 14.96697405  3573,6955.246,96.212,579.251,574.971,0.0
49146.0,STARLINK-3116,PAYLOAD,2022-05-08 22:00:00,14.96726147,0.0003051,69.9978,205.5991,277.7964,22.3205,-0.0020961,-0.00024007,0.0,0 STARLINK-3116,1 49146U 21082S   22128.91667824 -.00024007  00000-0 -20961-2 0  9990,2 49146  69.9978 205.5991 0003051 277.7964  22.3205 14.96726147  3594,6955.156999999997,96.21,579.144,574.9,0.0
49146.0,STARLINK-3116,PAYLOAD,2022-05-09 14:00:01,14.96723341,0.0003187,69.9982,203.9221,279.7731,11.5212,-0.00019357,-2.307e-05,0.0,0 STARLINK-3116,1 49146U 21082S   22129.58335648 -.00002307  00000-0 -19357-3 0  9997,2 49146  69.9982 203.9221 0003187 279.7731  11.5212 14.96723341 37937,6955.166,96.21,579.247,574.814,0.0
49146.0,STARLINK-3116,PAYLOAD,2022-05-09 22:00:00,14.9671116,0.0003266,69.998,203.0836,276.5681,10.2304,-0.0014432,-0.00016569,0.0,0 STARLINK-3116,1 49146U 21082S   22129.91667824 -.00016569  00000-0 -14432-2 0  9991,2 49146  69.9980 203.0836 0003266 276.5681  10.2304 14.96711160  3572,6955.204000000002,96.211,579.34,574.797,0.0
49146.0,STARLINK-3116,PAYLOAD,2022-05-10 14:00:01,14.9670461,0.0003323,69.9984,201.4068,279.0077,358.8773,0.002043,0.00023364,0.0,0 STARLINK-3116,1 49146U 21082S   22130.58334491  .00023364  00000-0  20430-2 0  9991,2 49146  69.9984 201.4068 0003323 279.0077 358.8773 14.96704610  3579,6955.224,96.211,579.4,574.778,0.0
49146.0,STARLINK-3116,PAYLOAD,2022-05-10 18:00:00,14.96742245,0.0003321,69.9981,200.9875,279.0733,176.574,-0.0059007,-0.00067034,0.0,0 STARLINK-3116,1 49146U 21082S   22130.75001157 -.00067034  00000-0 -59007-2 0  9996,2 49146  69.9981 200.9875 0003321 279.0733 176.5740 14.96742245 38116,6955.107,96.209,579.2819999999998,574.6619999999998,0.0
49146.0,STARLINK-3116,PAYLOAD,2022-05-11 22:00:00,14.96702055,0.0003293,69.9986,198.0532,275.8249,344.1947,-0.00026118,-3.079e-05,0.0,0 STARLINK-3116,1 49146U 21082S   22131.91667824 -.00003079  00000-0 -26118-3 0  9991,2 49146  69.9986 198.0532 0003293 275.8249 344.1947 14.96702055 38287,6955.232,96.212,579.387,574.806,0.0
49146.0,STARLINK-3116,PAYLOAD,2022-05-12 14:00:01,14.96694851,0.0003339,69.9987,196.3766,279.7655,331.3364,0.0038938,0.00044739,0.0,0 STARLINK-3116,1 49146U 21082S   22132.58334491  .00044739  00000-0  38938-2 0  9994,2 49146  69.9987 196.3766 0003339 279.7655 331.3364 14.96694851  1301,6955.254,96.212,579.441,574.797,0.0
49146.0,STARLINK-3116,PAYLOAD,2022-05-12 20:00:01,14.96739253,0.0003281,69.9984,195.7479,277.4812,240.2736,-0.0036521,-0.00041671,0.0,0 STARLINK-3116,1 49146U 21082S   22132.83334491 -.00041671  00000-0 -36521-2 0  9992,2 49146  69.9984 195.7479 0003281 277.4812 240.2736 14.96739253 38428,6955.1169999999975,96.209,579.263,574.7,0.0
49146.0,STARLINK-3116,PAYLOAD,2022-05-12 22:00:00,14.96714611,0.0003291,69.9985,195.5382,276.0368,330.615,0.00048932,5.513e-05,0.0,0 STARLINK-3116,1 49146U 21082S   22132.91667824  .00005513  00000-0  48932-3 0  9993,2 49146  69.9985 195.5382 0003291 276.0368 330.6150 14.96714611  1304,6955.193,96.211,579.347,574.769,0.0
49146.0,STARLINK-3116,PAYLOAD,2022-05-13 06:00:00,14.96747863,0.0003326,69.9988,194.6999,273.9841,328.2059,-0.0024677,-0.00028246,0.0,0 STARLINK-3116,1 49146U 21082S   22133.25001157 -.00028246  00000-0 -24677-2 0  9991,2 49146  69.9988 194.6999 0003326 273.9841 328.2059 14.96747863 38487,6955.09,96.209,579.268,574.6419999999998,0.0
49146.0,STARLINK-3116,PAYLOAD,2022-05-13 14:00:01,14.96718921,0.0003303,69.9986,193.8614,280.3621,317.4035,0.0013933,0.00015894,0.0,0 STARLINK-3116,1 49146U 21082S   22133.58334491  .00015894  00000-0  13933-2 0  9993,2 49146  69.9986 193.8614 0003303 280.3621 317.4035 14.96718921  1301,6955.179,96.21,579.342,574.747,0.0
49146.0,STARLINK-3116,PAYLOAD,2022-05-13 22:00:00,14.96698749,0.0003191999999999,69.9985,193.0232,276.1532,317.181,0.00042936,4.824e-05,0.0,0 STARLINK-3116,1 49146U 21082S   22133.91667824  .00004824  00000-0  42936-3 0  9996,2 49146  69.9985 193.0232 0003192 276.1532 317.1810 14.96698749  1301,6955.2419999999975,96.212,579.327,574.887,0.0
49146.0,STARLINK-3116,PAYLOAD,2022-05-14 06:00:00,14.96732713,0.0003217,69.9985,192.1845,274.0809,314.7969,-0.0024986,-0.00028586,0.0,0 STARLINK-3116,1 49146U 21082S   22134.25001157 -.00028586  00000-0 -24986-2 0  9992,2 49146  69.9985 192.1845 0003217 274.0809 314.7969 14.96732713 38637,6955.137,96.21,579.239,574.764,0.0
49146.0,STARLINK-3116,PAYLOAD,2022-05-14 14:00:01,14.96698056,0.0003265,69.9983,191.3461,280.2812,304.159,0.0038973,0.00044783,0.0,0 STARLINK-3116,1 49146U 21082S   22134.58334491  .00044783  00000-0  38973-2 0  9994,2 49146  69.9983 191.3461 0003265 280.2812 304.1590 14.96698056  1304,6955.244000000002,96.212,579.38,574.8380000000002,0.0
49146.0,STARLINK-3116,PAYLOAD,2022-05-14 22:00:00,14.9670794,0.0003246,69.9979,190.5076,275.2861,304.7067,0.001913,0.00021869,0.0,0 STARLINK-3116,1 49146U 21082S   22134.91667824  .00021869  00000-0  19130-2 0  9994,2 49146  69.9979 190.5076 0003246 275.2861 304.7067 14.96707940 38734,6955.214,96.211,579.336,574.821,0.0
49146.0,STARLINK-3116,PAYLOAD,2022-05-15 06:00:00,14.96719452,0.000315,69.9989,189.6692,273.906,301.5665,-0.0027948,-0.00031938,0.0,0 STARLINK-3116,1 49146U 21082S   22135.25001157 -.00031938  00000-0 -27948-2 0  9999,2 49146  69.9989 189.6692 0003150 273.9060 301.5665 14.96719452 38783,6955.178000000001,96.21,579.234,574.852,0.0
49146.0,STARLINK-3116,PAYLOAD,2022-05-15 14:00:01,14.96684771,0.0003232,69.9998,188.8307,279.7254,291.3575,0.0039109,0.00044925,0.0,0 STARLINK-3116,1 49146U 21082S   22135.58335648  .00044925  00000-0  39109-2 0  9990,2 49146  69.9998 188.8307 0003232 279.7254 291.3575 14.96684771  1306,6955.285,96.213,579.398,574.9019999999998,0.0
49146.0,STARLINK-3116,PAYLOAD,2022-05-15 22:00:00,14.96693476,0.0003222,69.9995,187.9923,274.6914,291.8713,0.0027116,0.00031066,0.0,0 STARLINK-3116,1 49146U 21082S   22135.91667824  .00031066  00000-0  27116-2 0  9998,2 49146  69.9995 187.9923 0003222 274.6914 291.8713 14.96693476 38887,6955.2580000000025,96.212,579.364,574.882,0.0
49146.0,STARLINK-3116,PAYLOAD,2022-05-16 14:00:01,14.96698013,0.0003311,69.9991,186.3156,279.1077,278.5373,0.003887,0.00044664,0.0,0 STARLINK-3116,1 49146U 21082S   22136.58334491  .00044664  00000-0  38870-2 0  9990,2 49146  69.9991 186.3156 0003311 279.1077 278.5373 14.96698013 38980,6955.244000000002,96.212,579.4119999999998,574.806,0.0
49146.0,STARLINK-3116,PAYLOAD,2022-05-16 22:00:00,14.96702569,0.0003296,69.999,185.4772,274.2458,278.9569,0.0032819,0.00037663,0.0,0 STARLINK-3116,1 49146U 21082S   22136.91667824  .00037663  00000-0  32819-2 0  9994,2 49146  69.9990 185.4772 0003296 274.2458 278.9569 14.96702569  1303,6955.23,96.212,579.388,574.803,0.0
49146.0,STARLINK-3116,PAYLOAD,2022-05-17 06:00:00,14.96756734,0.0003324,69.9991,184.6389,273.5934,275.1513,-0.0034234,-0.00039099,0.0,0 STARLINK-3116,1 49146U 21082S   22137.25001157 -.00039099  00000-0 -34234-2 0  9993,2 49146  69.9991 184.6389 0003324 273.5934 275.1513 14.96756734 39089,6955.062,96.208,579.239,574.615,0.0
49146.0,STARLINK-3116,PAYLOAD,2022-05-17 14:00:01,14.96727232,0.0003298,69.9987,183.8005,279.3805,265.0055,0.00033405,3.735e-05,0.0,0 STARLINK-3116,1 49146U 21082S   22137.58335648  .00003735  00000-0  33405-3 0  9990,2 49146  69.9987 183.8005 0003298 279.3805 265.0055 14.96727232  1305,6955.154,96.21,579.313,574.725,0.0
49146.0,STARLINK-3116,PAYLOAD,2022-05-17 22:00:01,14.96689806,0.0003188,69.9987,182.9622,274.3679,265.5972,0.0038991,0.00044794,0.0,0 STARLINK-3116,1 49146U 21082S   22137.91668981  .00044794  00000-0  38991-2 0  9990,2 49146  69.9987 182.9622 0003188 274.3679 265.5972 14.96689806  1309,6955.27,96.212,579.352,574.9169999999998,0.0
49146.0,STARLINK-3116,PAYLOAD,2022-05-18 06:00:00,14.96746299,0.0003228,69.9989,182.124,274.4161,261.0169,-0.0034658,-0.00039568,0.0,0 STARLINK-3116,1 49146U 21082S   22138.25001157 -.00039568  00000-0 -34658-2 0  9995,2 49146  69.9989 182.1240 0003228 274.4161 261.0169 14.96746299 39233,6955.095,96.209,579.205,574.715,0.0
49146.0,STARLINK-3116,PAYLOAD,2022-05-18 14:00:01,14.96749515,0.000316,69.9994,181.2917,279.3847,251.6058,-0.0065702,-0.00074562,0.0,0 STARLINK-3116,1 49146U 21082S   22138.58334491 -.00074562  00000-0 -65702-2 0  9998,2 49146  69.9994 181.2917 0003160 279.3847 251.6058 14.96749515  1303,6955.085,96.208,579.148,574.752,0.0
49146.0,STARLINK-3116,PAYLOAD,2022-05-18 22:00:00,14.96697596,0.0003256,69.9985,180.4472,274.3957,252.1711,0.0012954,0.0001476,0.0,0 STARLINK-3116,1 49146U 21082S   22138.91667824  .00014760  00000-0  12954-2 0  9997,2 49146  69.9985 180.4472 0003256 274.3957 252.1711 14.96697596 39330,6955.246,96.212,579.375,574.846,0.0
49146.0,STARLINK-3116,PAYLOAD,2022-05-19 14:00:01,14.96696868,0.0003363,69.9985,178.7704,279.7862,237.914,0.0026592,0.00030464,0.0,0 STARLINK-3116,1 49146U 21082S   22139.58335648  .00030464  00000-0  26592-2 0  9999,2 49146  69.9985 178.7704 0003363 279.7862 237.9140 14.96696868  1305,6955.248000000001,96.212,579.452,574.774,0.0
